CTC1_L_00216016-03
1 51761U 26074GU  26037.47803241  .00000000  00000+0  00000-0 0  9995
2 51761  95.0000 180.0000 0000000   0.0000   0.0000 13.42494869    16
CTC1_L_00216016-04
1 51762U 24935EW  26037.47803241  .00000000  00000+0  00000-0 0  9990
2 51762  95.0000 180.0000 0000000   0.0000  90.0000 13.42494869    16
CTC1_L_00216017-01
1 51763U 24339RU  26037.47803241  .00000000  00000+0  00000-0 0  9999
2 51763  95.0000 192.0000 0000000   0.0000 192.0000 13.42494869    13
CTC1_L_00216017-02
1 51764U 22094RV  26037.47803241  .00000000  00000+0  00000-0 0  9996
2 51764  95.0000 192.0000 0000000   0.0000 282.0000 13.42494869    14
CTC1_L_00216017-03
1 51765U 25019OX  26037.47803241  .00000000  00000+0  00000-0 0  9997
2 51765  95.0000 192.0000 0000000   0.0000  12.0000 13.42494869    16
CTC1_L_00216017-04
1 51766U 25203LI  26037.47803241  .00000000  00000+0  00000-0 0  9993
2 51766  95.0000 192.0000 0000000   0.0000 102.0000 13.42494869    17
CTC1_L_00216018-01
1 51767U 22273A   26037.47803241  .00000000  00000+0  00000-0 0  9998
2 51767  95.0000 204.0000 0000000   0.0000 204.0000 13.42494869    15
CTC1_L_00216018-02
1 51768U 23404SU  26037.47803241  .00000000  00000+0  00000-0 0  9996
2 51768  95.0000 204.0000 0000000   0.0000 294.0000 13.42494869    15
CTC1_L_00216018-03
1 51769U 26196TN  26037.47803241  .00000000  00000+0  00000-0 0  9998
2 51769  95.0000 204.0000 0000000   0.0000  24.0000 13.42494869    17
CTC1_L_00216018-04
1 51770U 22861PI  26037.47803241  .00000000  00000+0  00000-0 0  9995
2 51770  95.0000 204.0000 0000000   0.0000 114.0000 13.42494869    19
CTC1_L_00216019-01
1 51771U 26071GZ  26037.47803241  .00000000  00000+0  00000-0 0  9993
2 51771  95.0000 216.0000 0000000   0.0000 216.0000 13.42494869    16
CTC1_L_00216019-02
1 51772U 25850RW  26037.47803241  .00000000  00000+0  00000-0 0  9998
2 51772  95.0000 216.0000 0000000   0.0000 306.0000 13.42494869    17
CTC1_L_00216019-03
1 51773U 25553WA  26037.47803241  .00000000  00000+0  00000-0 0  9999
2 51773  95.0000 216.0000 0000000   0.0000  36.0000 13.42494869    18
CTC1_L_00216019-04
1 51774U 23176JG  26037.47803241  .00000000  00000+0  00000-0 0  9999
2 51774  95.0000 216.0000 0000000   0.0000 126.0000 13.42494869    19
CTC1_L_00216020-01
1 51775U 25718DE  26037.47803241  .00000000  00000+0  00000-0 0  9994
2 51775  95.0000 228.0000 0000000   0.0000 228.0000 13.42494869    16
CTC1_L_00216020-02
1 51776U 25399L   26037.47803241  .00000000  00000+0  00000-0 0  9990
2 51776  95.0000 228.0000 0000000   0.0000 318.0000 13.42494869    17
CTC1_L_00216020-03
1 51777U 26041YR  26037.47803241  .00000000  00000+0  00000-0 0  9996
2 51777  95.0000 228.0000 0000000   0.0000  48.0000 13.42494869    18
CTC1_L_00216020-04
1 51778U 25932AA  26037.47803241  .00000000  00000+0  00000-0 0  9995
2 51778  95.0000 228.0000 0000000   0.0000 138.0000 13.42494869    19
CTC1_L_00216021-01
1 51779U 22707DB  26037.47803241  .00000000  00000+0  00000-0 0  9993
2 51779  95.0000 240.0000 0000000   0.0000 240.0000 13.42494869    18
CTC1_L_00216021-02
1 51780U 26906FJ  26037.47803241  .00000000  00000+0  00000-0 0  9990
2 51780  95.0000 240.0000 0000000   0.0000 330.0000 13.42494869    10
CTC1_L_00216021-03
1 51781U 24342MW  26037.47803241  .00000000  00000+0  00000-0 0  9993
2 51781  95.0000 240.0000 0000000   0.0000  60.0000 13.42494869    11
CTC1_L_00216021-04
1 51782U 23102IE  26037.47803241  .00000000  00000+0  00000-0 0  9997
2 51782  95.0000 240.0000 0000000   0.0000 150.0000 13.42494869    12
CTC1_L_00216022-01
1 51783U 22950ZT  26037.47803241  .00000000  00000+0  00000-0 0  9998
2 51783  95.0000 252.0000 0000000   0.0000 252.0000 13.42494869    19
CTC1_L_00216022-02
1 51784U 23362XT  26037.47803241  .00000000  00000+0  00000-0 0  9997
2 51784  95.0000 252.0000 0000000   0.0000 342.0000 13.42494869    10
CTC1_L_00216022-03
1 51785U 26508IM  26037.47803241  .00000000  00000+0  00000-0 0  9993
2 51785  95.0000 252.0000 0000000   0.0000  72.0000 13.42494869    11
CTC1_L_00216022-04
1 51786U 24501FB  26037.47803241  .00000000  00000+0  00000-0 0  9995
2 51786  95.0000 252.0000 0000000   0.0000 162.0000 13.42494869    12
CTC1_L_00216023-01
1 51787U 24189HJ  26037.47803241  .00000000  00000+0  00000-0 0  9998
2 51787  95.0000 264.0000 0000000   0.0000 264.0000 13.42494869    19
CTC1_L_00216023-02
1 51788U 24229EV  26037.47803241  .00000000  00000+0  00000-0 0  9994
2 51788  95.0000 264.0000 0000000   0.0000 354.0000 13.42494869    10
CTC1_L_00216023-03
1 51789U 26043AA  26037.47803241  .00000000  00000+0  00000-0 0  9991
2 51789  95.0000 264.0000 0000000   0.0000  84.0000 13.42494869    11
CTC1_L_00216023-04
1 51790U 24523IU  26037.47803241  .00000000  00000+0  00000-0 0  9994
2 51790  95.0000 264.0000 0000000   0.0000 174.0000 13.42494869    13
CTC1_L_00216024-01
1 51791U 25989FU  26037.47803241  .00000000  00000+0  00000-0 0  9992
2 51791  95.0000 276.0000 0000000   0.0000 276.0000 13.42494869    10
CTC1_L_00216024-02
1 51792U 23497DS  26037.47803241  .00000000  00000+0  00000-0 0  9995
2 51792  95.0000 276.0000 0000000   0.0000   6.0000 13.42494869    12
CTC1_L_00216024-03
1 51793U 23882NQ  26037.47803241  .00000000  00000+0  00000-0 0  9994
2 51793  95.0000 276.0000 0000000   0.0000  96.0000 13.42494869    12
CTC1_L_00216024-04
1 51794U 22516QU  26037.47803241  .00000000  00000+0  00000-0 0  9998
2 51794  95.0000 276.0000 0000000   0.0000 186.0000 13.42494869    13
CTC1_L_00216025-01
1 51795U 24610UO  26037.47803241  .00000000  00000+0  00000-0 0  9996
2 51795  95.0000 288.0000 0000000   0.0000 288.0000 13.42494869    10
CTC1_L_00216025-02
1 51796U 22463CJ  26037.47803241  .00000000  00000+0  00000-0 0  9991
2 51796  95.0000 288.0000 0000000   0.0000  18.0000 13.42494869    12
CTC1_L_00216025-03
1 51797U 25051VN  26037.47803241  .00000000  00000+0  00000-0 0  9998
2 51797  95.0000 288.0000 0000000   0.0000 108.0000 13.42494869    13
CTC1_L_00216025-04
1 51798U 24352EL  26037.47803241  .00000000  00000+0  00000-0 0  9992
2 51798  95.0000 288.0000 0000000   0.0000 198.0000 13.42494869    13
CTC1_L_00216026-01
1 51799U 25318SG  26037.47803241  .00000000  00000+0  00000-0 0  9996
2 51799  95.0000 300.0000 0000000   0.0000 300.0000 13.42494869    14
CTC1_L_00216026-02
1 51800U 25915RQ  26037.47803241  .00000000  00000+0  00000-0 0  9992
2 51800  95.0000 300.0000 0000000   0.0000  30.0000 13.42494869    17
CTC1_L_00216026-03
1 51801U 26765NZ  26037.47803241  .00000000  00000+0  00000-0 0  9997
2 51801  95.0000 300.0000 0000000   0.0000 120.0000 13.42494869    18
CTC1_L_00216026-04
1 51802U 25356KJ  26037.47803241  .00000000  00000+0  00000-0 0  9993
2 51802  95.0000 300.0000 0000000   0.0000 210.0000 13.42494869    19
CTC1_L_00216027-01
1 51803U 23502YZ  26037.47803241  .00000000  00000+0  00000-0 0  9995
2 51803  95.0000 312.0000 0000000   0.0000 312.0000 13.42494869    16
CTC1_L_00216027-02
1 51804U 22264HX  26037.47803241  .00000000  00000+0  00000-0 0  9990
2 51804  95.0000 312.0000 0000000   0.0000  42.0000 13.42494869    17
CTC1_L_00216027-03
1 51805U 26875JO  26037.47803241  .00000000  00000+0  00000-0 0  9993
2 51805  95.0000 312.0000 0000000   0.0000 132.0000 13.42494869    18
CTC1_L_00216027-04
1 51806U 25379N   26037.47803241  .00000000  00000+0  00000-0 0  9992
2 51806  95.0000 312.0000 0000000   0.0000 222.0000 13.42494869    19
CTC1_L_00216028-01
1 51807U 22452NN  26037.47803241  .00000000  00000+0  00000-0 0  9992
2 51807  95.0000 324.0000 0000000   0.0000 324.0000 13.42494869    16
CTC1_L_00216028-02
1 51808U 24677AP  26037.47803241  .00000000  00000+0  00000-0 0  9994
2 51808  95.0000 324.0000 0000000   0.0000  54.0000 13.42494869    17
CTC1_L_00216028-03
1 51809U 22160TQ  26037.47803241  .00000000  00000+0  00000-0 0  9990
2 51809  95.0000 324.0000 0000000   0.0000 144.0000 13.42494869    18
CTC1_L_00216028-04
1 51810U 25931HX  26037.47803241  .00000000  00000+0  00000-0 0  9991
2 51810  95.0000 324.0000 0000000   0.0000 234.0000 13.42494869    10
CTC1_L_00216029-01
1 51811U 26709WI  26037.47803241  .00000000  00000+0  00000-0 0  9996
2 51811  95.0000 336.0000 0000000   0.0000 336.0000 13.42494869    17
CTC1_L_00216029-02
1 51812U 25521QQ  26037.47803241  .00000000  00000+0  00000-0 0  9998
2 51812  95.0000 336.0000 0000000   0.0000  66.0000 13.42494869    18
CTC1_L_00216029-03
1 51813U 25201LX  26037.47803241  .00000000  00000+0  00000-0 0  9994
2 51813  95.0000 336.0000 0000000   0.0000 156.0000 13.42494869    19
CTC1_L_00216029-04
1 51814U 26833VA  26037.47803241  .00000000  00000+0  00000-0 0  9997
2 51814  95.0000 336.0000 0000000   0.0000 246.0000 13.42494869    10
CTC1_L_00216030-01
1 51815U 24876DX  26037.47803241  .00000000  00000+0  00000-0 0  9993
2 51815  95.0000 348.0000 0000000   0.0000 348.0000 13.42494869    17
CTC1_L_00216030-02
1 51816U 25735FH  26037.47803241  .00000000  00000+0  00000-0 0  9999
2 51816  95.0000 348.0000 0000000   0.0000  78.0000 13.42494869    18
CTC1_L_00216030-03
1 51817U 25610NN  26037.47803241  .00000000  00000+0  00000-0 0  9992
2 51817  95.0000 348.0000 0000000   0.0000 168.0000 13.42494869    19
CTC1_L_00216030-04
1 51818U 24503WA  26037.47803241  .00000000  00000+0  00000-0 0  9993
2 51818  95.0000 348.0000 0000000   0.0000 258.0000 13.42494869    10
